{"type": "FeatureCollection", "features": [ {"type": "Feature", "properties": {"norad_id": 31984, "name": "FENGYUN 1C DEB", "group": "fengyun-1c-debris", "lat": 69.78145354568896, "lon": -31.67258783516035, "alt_km": 848.227906916497, "timestamp": "2025-12-14T03:55:53.072573+00:00", "meta": {"OBJECT_NAME": "FENGYUN 1C DEB", "OBJECT_ID": "1999-025CPM", "EPOCH": "2025-12-02T19:53:15.322848", "MEAN_MOTION": 14.2293256, "ECCENTRICITY": 0.00625309, "INCLINATION": 98.5577, "RA_OF_ASC_NODE": 341.445, "ARG_OF_PERICENTER": 256.5759, "MEAN_ANOMALY": 102.8445, "EPHEMERIS_TYPE": 0, "CLASSIFICATION_TYPE": "U", "NORAD_CAT_ID": 31984, "ELEMENT_SET_NO": 999, "REV_AT_EPOCH": 94232, "BSTAR": 0.00049073387, "MEAN_MOTION_DOT": 1.083e-05, "MEAN_MOTION_DDOT": 0}, "tle": {"line1": "1 31984U 99025CPM 25336.82864957  .00001083  00000+0  49073-3 0  9995", "line2": "2 31984  98.5577 341.4450 0062530 256.5759 102.8445 14.22932560942322"}}, "geometry": {"type": "Point", "coordinates": [-31.67258783516035, 69.78145354568896]}}, {"type": "Feature", "properties": {"norad_id": 31985, "name": "FENGYUN 1C DEB", "group": "fengyun-1c-debris", "lat": -25.50810963066668, "lon": 65.33835333384557, "alt_km": 733.7722333310921, "timestamp": "2025-12-14T03:55:53.072583+00:00", "meta": {"OBJECT_NAME": "FENGYUN 1C DEB", "OBJECT_ID": "1999-025CPN", "EPOCH": "2025-12-10T12:53:19.926816", "MEAN_MOTION": 14.22969288, "ECCENTRICITY": 0.0150474, "INCLINATION": 98.2197, "RA_OF_ASC_NODE": 245.9057, "ARG_OF_PERICENTER": 253.2577, "MEAN_ANOMALY": 105.2044, "EPHEMERIS_TYPE": 0, "CLASSIFICATION_TYPE": "U", "NORAD_CAT_ID": 31985, "ELEMENT_SET_NO": 999, "REV_AT_EPOCH": 95579, "BSTAR": 0.00055157, "MEAN_MOTION_DOT": 1.353e-05, "MEAN_MOTION_DDOT": 0}, "tle": {"line1": "1 31985U 99025CPN 25344.53703619  .00001353  00000+0  55157-3 0  9990", "line2": "2 31985  98.2197 245.9057 0150474 253.2577 105.2044 14.22969288955790"}}, "geometry": {"type": "Point", "coordinates": [65.33835333384557, -25.50810963066668]}}, {"type": "Feature", "properties": {"norad_id": 31987, "name": "FENGYUN 1C DEB", "group": "fengyun-1c-debris", "lat": 75.12674133587151, "lon": 178.6871040320478, "alt_km": 712.15287585429, "timestamp": "2025-12-14T03:55:53.072593+00:00", "meta": {"OBJECT_NAME": "FENGYUN 1C DEB", "OBJECT_ID": "1999-025CPQ", "EPOCH": "2025-12-12T21:40:37.059744", "MEAN_MOTION": 14.44914051, "ECCENTRICITY": 0.005148, "INCLINATION": 99.0394, "RA_OF_ASC_NODE": 320.5185, "ARG_OF_PERICENTER": 157.0787, "MEAN_ANOMALY": 231.6684, "EPHEMERIS_TYPE": 0, "CLASSIFICATION_TYPE": "U", "NORAD_CAT_ID": 31987, "ELEMENT_SET_NO": 999, "REV_AT_EPOCH": 96372, "BSTAR": 0.0015029844, "MEAN_MOTION_DOT": 5.274e-05, "MEAN_MOTION_DDOT": 0}, "tle": {"line1": "1 31987U 99025CPQ 25346.90320671  .00005274  00000+0  15030-2 0  9999", "line2": "2 31987  99.0394 320.5185 0051480 157.0787 231.6684 14.44914051963721"}}, "geometry": {"type": "Point", "coordinates": [178.6871040320478, 75.12674133587151]}}, {"type": "Feature", "properties": {"norad_id": 31989, "name": "FENGYUN 1C DEB", "group": "fengyun-1c-debris", "lat": 43.550851148235424, "lon": -121.8143436093751, "alt_km": 991.0247558749179, "timestamp": "2025-12-14T03:55:53.072604+00:00", "meta": {"OBJECT_NAME": "FENGYUN 1C DEB", "OBJECT_ID": "1999-025CPS", "EPOCH": "2025-12-13T03:18:00.139968", "MEAN_MOTION": 13.93588566, "ECCENTRICITY": 0.01152319, "INCLINATION": 99.2133, "RA_OF_ASC_NODE": 48.2874, "ARG_OF_PERICENTER": 298.0379, "MEAN_ANOMALY": 91.9656, "EPHEMERIS_TYPE": 0, "CLASSIFICATION_TYPE": "U", "NORAD_CAT_ID": 31989, "ELEMENT_SET_NO": 999, "REV_AT_EPOCH": 93723, "BSTAR": 0.00070738029, "MEAN_MOTION_DOT": 9.35e-06, "MEAN_MOTION_DDOT": 0}, "tle": {"line1": "1 31989U 99025CPS 25347.13750162  .00000935  00000+0  70738-3 0  9995", "line2": "2 31989  99.2133  48.2874 0115231 298.0379  91.9656 13.93588566937237"}}, "geometry": {"type": "Point", "coordinates": [-121.8143436093751, 43.550851148235424]}}, {"type": "Feature", "properties": {"norad_id": 31990, "name": "FENGYUN 1C DEB", "group": "fengyun-1c-debris", "lat": 43.77697045862279, "lon": 1.6623920176143927, "alt_km": 1179.428818089992, "timestamp": "2025-12-14T03:55:53.072615+00:00", "meta": {"OBJECT_NAME": "FENGYUN 1C DEB", "OBJECT_ID": "1999-025CPT", "EPOCH": "2025-12-12T20:44:20.525280", "MEAN_MOTION": 13.57202402, "ECCENTRICITY": 0.02601972, "INCLINATION": 99.1607, "RA_OF_ASC_NODE": 9.345, "ARG_OF_PERICENTER": 184.2325, "MEAN_ANOMALY": 355.5919, "EPHEMERIS_TYPE": 0, "CLASSIFICATION_TYPE": "U", "NORAD_CAT_ID": 31990, "ELEMENT_SET_NO": 999, "REV_AT_EPOCH": 62773, "BSTAR": 0.00037754955, "MEAN_MOTION_DOT": 2.95e-06, "MEAN_MOTION_DDOT": 0}, "tle": {"line1": "1 31990U 99025CPT 25346.86412645  .00000295  00000+0  37755-3 0  9998", "line2": "2 31990  99.1607   9.3450 0260197 184.2325 355.5919 13.57202402627735"}}, "geometry": {"type": "Point", "coordinates": [1.6623920176143927, 43.77697045862279]}}, {"type": "Feature", "properties": {"norad_id": 31991, "name": "FENGYUN 1C DEB", "group": "fengyun-1c-debris", "lat": 79.4936046617486, "lon": 90.22462269056587, "alt_km": 882.1961628113868, "timestamp": "2025-12-14T03:55:53.072625+00:00", "meta": {"OBJECT_NAME": "FENGYUN 1C DEB", "OBJECT_ID": "1999-025CPU", "EPOCH": "2025-12-10T18:22:22.024416", "MEAN_MOTION": 13.6127752, "ECCENTRICITY": 0.02446272, "INCLINATION": 100.4864, "RA_OF_ASC_NODE": 173.6062, "ARG_OF_PERICENTER": 58.2006, "MEAN_ANOMALY": 304.2706, "EPHEMERIS_TYPE": 0, "CLASSIFICATION_TYPE": "U", "NORAD_CAT_ID": 31991, "ELEMENT_SET_NO": 999, "REV_AT_EPOCH": 62060, "BSTAR": 0.00020963887, "MEAN_MOTION_DOT": 1.45e-06, "MEAN_MOTION_DDOT": 0}, "tle": {"line1": "1 31991U 99025CPU 25344.76553269  .00000145  00000+0  20964-3 0  9992", "line2": "2 31991 100.4864 173.6062 0244627  58.2006 304.2706 13.61277520620609"}}, "geometry": {"type": "Point", "coordinates": [90.22462269056587, 79.4936046617486]}}, {"type": "Feature", "properties": {"norad_id": 31992, "name": "FENGYUN 1C DEB", "group": "fengyun-1c-debris", "lat": 37.845690403878, "lon": 135.0776629990379, "alt_km": 1327.2208300106868, "timestamp": "2025-12-14T03:55:53.072636+00:00", "meta": {"OBJECT_NAME": "FENGYUN 1C DEB", "OBJECT_ID": "1999-025CPV", "EPOCH": "2025-12-12T04:04:23.293056", "MEAN_MOTION": 13.22988689, "ECCENTRICITY": 0.05424019, "INCLINATION": 99.1658, "RA_OF_ASC_NODE": 306.1111, "ARG_OF_PERICENTER": 30.97, "MEAN_ANOMALY": 332.2249, "EPHEMERIS_TYPE": 0, "CLASSIFICATION_TYPE": "U", "NORAD_CAT_ID": 31992, "ELEMENT_SET_NO": 999, "REV_AT_EPOCH": 53867, "BSTAR": 0.001808457, "MEAN_MOTION_DOT": 1.63e-05, "MEAN_MOTION_DDOT": 0}, "tle": {"line1": "1 31992U 99025CPV 25346.16971404  .00001630  00000+0  18085-2 0  9994", "line2": "2 31992  99.1658 306.1111 0542401  30.9700 332.2249 13.22988689538672"}}, "geometry": {"type": "Point", "coordinates": [135.0776629990379, 37.845690403878]}}, {"type": "Feature", "properties": {"norad_id": 31993, "name": "FENGYUN 1C DEB", "group": "fengyun-1c-debris", "lat": -18.50333937418317, "lon": 137.15524749889485, "alt_km": 1024.8904896847307, "timestamp": "2025-12-14T03:55:53.072646+00:00", "meta": {"OBJECT_NAME": "FENGYUN 1C DEB", "OBJECT_ID": "1999-025CPW", "EPOCH": "2025-12-13T03:27:29.109024", "MEAN_MOTION": 13.27453575, "ECCENTRICITY": 0.04217087, "INCLINATION": 99.2408, "RA_OF_ASC_NODE": 319.3656, "ARG_OF_PERICENTER": 134.3236, "MEAN_ANOMALY": 229.3281, "EPHEMERIS_TYPE": 0, "CLASSIFICATION_TYPE": "U", "NORAD_CAT_ID": 31993, "ELEMENT_SET_NO": 999, "REV_AT_EPOCH": 88948, "BSTAR": 0.0020555471, "MEAN_MOTION_DOT": 1.464e-05, "MEAN_MOTION_DDOT": 0}, "tle": {"line1": "1 31993U 99025CPW 25347.14408691  .00001464  00000+0  20555-2 0  9997", "line2": "2 31993  99.2408 319.3656 0421708 134.3236 229.3281 13.27453575889482"}}, "geometry": {"type": "Point", "coordinates": [137.15524749889485, -18.50333937418317]}}, {"type": "Feature", "properties": {"norad_id": 31994, "name": "FENGYUN 1C DEB", "group": "fengyun-1c-debris", "lat": 19.83446627943129, "lon": -20.869078775773566, "alt_km": 969.6896379957534, "timestamp": "2025-12-14T03:55:53.072656+00:00", "meta": {"OBJECT_NAME": "FENGYUN 1C DEB", "OBJECT_ID": "1999-025CPX", "EPOCH": "2025-12-12T22:35:07.688544", "MEAN_MOTION": 13.95758922, "ECCENTRICITY": 0.01622783, "INCLINATION": 98.5393, "RA_OF_ASC_NODE": 341.1035, "ARG_OF_PERICENTER": 145.5095, "MEAN_ANOMALY": 215.6728, "EPHEMERIS_TYPE": 0, "CLASSIFICATION_TYPE": "U", "NORAD_CAT_ID": 31994, "ELEMENT_SET_NO": 999, "REV_AT_EPOCH": 56799, "BSTAR": 9.9108947e-05, "MEAN_MOTION_DOT": 1.12e-06, "MEAN_MOTION_DDOT": 0}, "tle": {"line1": "1 31994U 99025CPX 25346.94106121  .00000112  00000+0  99109-4 0  9990", "line2": "2 31994  98.5393 341.1035 0162278 145.5095 215.6728 13.95758922567995"}}, "geometry": {"type": "Point", "coordinates": [-20.869078775773566, 19.83446627943129]}}, {"type": "Feature", "properties": {"norad_id": 31997, "name": "FENGYUN 1C DEB", "group": "fengyun-1c-debris", "lat": 12.083543181840119, "lon": -145.22286431858092, "alt_km": 1076.8438164180907, "timestamp": "2025-12-14T03:55:53.072667+00:00", "meta": {"OBJECT_NAME": "FENGYUN 1C DEB", "OBJECT_ID": "1999-025CQA", "EPOCH": "2025-12-11T09:47:13.036128", "MEAN_MOTION": 13.60665403, "ECCENTRICITY": 0.02898133, "INCLINATION": 102.5103, "RA_OF_ASC_NODE": 28.5345, "ARG_OF_PERICENTER": 276.805, "MEAN_ANOMALY": 80.0188, "EPHEMERIS_TYPE": 0, "CLASSIFICATION_TYPE": "U", "NORAD_CAT_ID": 31997, "ELEMENT_SET_NO": 999, "REV_AT_EPOCH": 61665, "BSTAR": 0.0033410301, "MEAN_MOTION_DOT": 3.262e-05, "MEAN_MOTION_DDOT": 0}, "tle": {"line1": "1 31997U 99025CQA 25345.40778977  .00003262  00000+0  33410-2 0  9997", "line2": "2 31997 102.5103  28.5345 0289813 276.8050  80.0188 13.60665403616652"}}, "geometry": {"type": "Point", "coordinates": [-145.22286431858092, 12.083543181840119]}}]}